{
  "norad_id": 60125,
  "name": "STARLINK-11160 [DTC]",
  "history": [
    {
      "epoch": "2026-03-28T09:33:58.950144Z",
      "apogee_km": 360.5710197718154,
      "perigee_km": 358.81392860153665,
      "latitude_deg": -1.2405568780004292e-05,
      "longitude_deg": 159.5771523639795,
      "height_km": 360.26058296569886,
      "semi_major_axis_km": 6737.829474186676,
      "eccentricity": 0.00013039,
      "inclination_deg": 53.1579,
      "raan_deg": 128.8924,
      "arg_perigee_deg": 66.8636,
      "mean_anomaly_deg": 293.2519,
      "mean_motion_rev_day": 15.69721978
    }
  ]
}